STARLINK-35424          
1 66460U 25262E   25336.16671295 -.02133798  00000+0 -23430-1 0  9992
2 66460  42.9994 133.1651 0001427 265.8663 309.5259 15.65839605  3937
STARLINK-35132          
1 66461U 25262F   25336.16671295 -.02139905  00000+0 -23503-1 0  9990
2 66461  42.9996 133.1605 0001391 266.0680 311.2410 15.65843672  3939
STARLINK-35499          
1 66462U 25262G   25336.16671295 -.02142503  00000+0 -23535-1 0  9994
2 66462  42.9997 133.1549 0001392 265.5497 313.6772 15.65844972  3930
STARLINK-35463          
1 66463U 25262H   25336.16671295 -.02130990  00000+0 -23396-1 0  9997
2 66463  42.9997 133.1452 0001378 267.3201 315.7408 15.65837928  3933
STARLINK-35435          
1 66464U 25262J   25336.16671295 -.02137903  00000+0 -23480-1 0  9993
2 66464  42.9995 133.1506 0001388 268.2920 312.8518 15.65841799  3932
STARLINK-35448          
1 66465U 25262K   25336.16671295 -.02136305  00000+0 -23458-1 0  9994
2 66465  42.9994 133.1359 0001468 265.3255 321.5666 15.65842327  3935
STARLINK-35388          
1 66466U 25262L   25336.16671295 -.02137553  00000+0 -23476-1 0  9991
2 66466  42.9997 133.1301 0001426 269.9437 318.8693 15.65841033  3934
STARLINK-35682          
1 66467U 25262M   25336.16671295 -.02137601  00000+0 -23473-1 0  9993
2 66467  42.9996 133.1406 0001549 266.9176 318.0571 15.65842903  3937
STARLINK-35331          
1 66468U 25262N   25336.16671295 -.02138325  00000+0 -23482-1 0  9998
2 66468  42.9996 133.1262 0001485 268.9738 321.7515 15.65843803  3932
STARLINK-35451          
1 66469U 25262P   25336.16671295 -.02122452  00000+0 -23293-1 0  9993
2 66469  42.9996 133.1107 0001521 265.4534 331.0291 15.65831715  3932
STARLINK-35655          
1 66470U 25262Q   25336.16671295 -.02129585  00000+0 -23378-1 0  9993
2 66470  42.9997 133.1213 0001440 266.8368 325.8087 15.65837520  3937
STARLINK-35569          
1 66471U 25262R   25336.16671295 -.02140050  00000+0 -23504-1 0  9995
2 66471  42.9997 133.1162 0001460 264.1085 330.4545 15.65843642  3933
